BEIDOU-3 M6             
1 43582U 18062B   23157.30880147  .00000056  00000+0  00000+0 0  9997
2 43582  54.1895 219.9758 0004050 357.2484   2.8424  1.86229375 33020
BEIDOU-3 M12            
1 43602U 18067A   23157.78297875  .00000052  00000+0  00000+0 0  9993
2 43602  54.2761 218.6064 0006518  12.2102 347.8969  1.86231671 32520
BEIDOU-3 M11            
1 43603U 18067B   23157.37982403  .00000057  00000+0  00000+0 0  9992
2 43603  54.2733 218.5861 0003644 355.9559   4.1343  1.86231566 32537
BEIDOU-3 M13            
1 43622U 18072A   23157.33777963  .00000007  00000+0  00000+0 0  9993
2 43622  55.7090  99.4801 0008130 298.3144  61.5700  1.86231530 32046
BEIDOU-3 M14            
1 43623U 18072B   23156.66628362  .00000005  00000+0  00000+0 0  9995
2 43623  55.7104  99.4952 0006179 320.3400  39.5784  1.86231548 32026
BEIDOU-3 M16            
1 43647U 18078A   23156.82657628 -.00000068  00000+0  00000+0 0  9992
2 43647  54.9634 338.4533 0007641  18.9474 341.0883  1.86227191 31533
BEIDOU-3 M15            
1 43648U 18078B   23157.49656660 -.00000069  00000+0  00000+0 0  9993
2 43648  54.9589 338.4347 0004816  34.5770 325.4605  1.86232125 31575
BEIDOU-3 G1             
1 43683U 18085A   23157.99584608 -.00000275  00000+0  00000+0 0  9996
2 43683   1.3283 131.0071 0004801 324.4662 298.0539  1.00264571 16960
COSMOS 2529             
1 43687U 18086A   23157.19920980  .00000051  00000+0  00000+0 0  9991
2 43687  64.3192 230.0910 0010493 261.0093  98.9543  2.13102062 35696
BEIDOU-3 M17            
1 43706U 18093A   23158.18234873  .00000045  00000+0  00000+0 0  9993
2 43706  54.2720 219.8672 0009964 274.5465  85.4286  1.86231863 30923
BEIDOU-3 M18            
1 43707U 18093B   23156.97335197  .00000060  00000+0  00000+0 0  9997
2 43707  54.2730 219.8999 0007881 299.8212  60.1949  1.86229663 30913
NAVSTAR 77 (USA 289)    
1 43873U 18109A   23157.88875427  .00000060  00000+0  00000+0 0  9995
2 43873  55.1719 135.8990 0024477 194.7556 324.5910  2.00564407 32839
BEIDOU-3 IGSO-1         
1 44204U 19023A   23157.61646522 -.00000230  00000+0  00000+0 0  9993
2 44204  57.0832  49.1918 0018618 201.7226 343.0073  1.00255500 15247
BEIDOU-2 G8             
1 44231U 19027A   23158.28324537 -.00000244  00000+0  00000+0 0  9995
2 44231   1.7366  81.2413 0004688 119.2055 301.4451  1.00268228 14986
COSMOS 2534             
1 44299U 19030A   23157.47914722  .00000048  00000+0  00000+0 0  9995
2 44299  64.3915 229.9996 0012636 281.6575  67.3829  2.13102041 31335
BEIDOU-3 IGSO-2         
1 44337U 19035A   23157.44494062 -.00000069  00000+0  00000+0 0  9994
2 44337  55.1471 168.5825 0030862 202.6930 159.5717  1.00248526 14572
NAVSTAR 78 (USA 293)    
1 44506U 19056A   23157.55743758 -.00000074  00000+0  00000+0 0  9992
2 44506  55.8016  14.9940 0032768 182.7029 358.1878  2.00564020 27871
BEIDOU-3 M24            
1 44542U 19061A   23157.58269855  .00000053  00000+0  00000+0 0  9998
2 44542  54.4993 220.0995 0007467 337.0294  23.0292  1.86231167 25183
BEIDOU-3 M23            
1 44543U 19061B   23157.28284184  .00000057  00000+0  00000+0 0  9992
2 44543  54.4976 220.0792 0005028 317.9157 112.8750  1.86231522 25187
BEIDOU-3 IGSO-3         
1 44709U 19073A   23156.78237135 -.00000201  00000+0  00000+0 0  9999
2 44709  56.6868 292.6996 0032259 178.7371 181.2142  1.00255322 13354
BEIDOU-3 M22            
1 44793U 19078A   23157.42765934 -.00000069  00000+0  00000+0 0  9994
2 44793  54.8116 338.4110 0006656  27.3275 332.7137  1.86232069 24046
BEIDOU-3 M21            
1 44794U 19078B   23155.94760459 -.00000067  00000+0  00000+0 0  9995
2 44794  54.7864 338.4461 0004528  27.1062 332.9267  1.86232589 24013
COSMOS 2544             
1 44850U 19088A   23157.04313797  .00000035  00000+0  00000+0 0  9995
2 44850  65.0512 110.8239 0014283 262.4591  97.3485  2.13102083 27121
BEIDOU-3 M19            
1 44864U 19090A   23157.66500524  .00000009  00000+0  00000+0 0  9998
2 44864  55.6437  99.6611 0018543 278.5646 346.8943  1.86231545 23624
BEIDOU-3 M20            
1 44865U 19090B   23156.81994581  .00000006  00000+0  00000+0 0  9992
2 44865  55.6451  99.7221 0016749 291.4129 217.2786  1.86231506 23594
BEIDOU-3 G2             
1 45344U 20017A   23157.69742778 -.00000135  00000+0  00000+0 0  9996
2 45344   2.0092  11.4581 0003352  95.4262 119.0424  1.00269691 12161
COSMOS 2545             
1 45358U 20018A   23158.17856856 -.00000046  00000+0  00000+0 0  9990
2 45358  64.8675 351.0115 0006653 242.8047 117.1561  2.13102553 25096
BEIDOU-3 G3             
1 45807U 20040A   23158.42008757 -.00000350  00000+0  00000+0 0  9999
2 45807   0.7231 328.3771 0005840 316.4510 232.4996  1.00266816 10991
NAVSTAR 79 (USA 304)    
1 45854U 20041A   23157.66478434 -.00000034  00000+0  00000+0 0  9999
2 45854  55.8068  72.2682 0032373 186.5850  15.1133  2.00565216 21844
GALAXY 30 (G-30)        
1 46114U 20056C   23158.02688448  .00000042  00000+0  00000+0 0  9992
2 46114   0.0143  20.0968 0002361  62.4286  57.3127  1.00271757 10311
COSMOS 2547             
1 46805U 20075A   23157.42973957  .00000049  00000+0  00000+0 0  9992
2 46805  64.6184 229.5305 0007967 241.6466 118.3555  2.13103116 20321
NAVSTAR 80 (USA 309)    
1 46826U 20078A   23157.78634354  .00000007  00000+0  00000+0 0  9996
2 46826  54.3551 255.7053 0032547 191.6142  73.4187  2.00562599 19315
NAVSTAR 81 (USA 319)    
1 48859U 21054A   23157.62498201 -.00000075  00000+0  00000+0 0  9997
2 48859  55.3164  16.8199 0009496 207.6022 121.5391  2.00554193 14557
QZS-1R                  
1 49336U 21096A   23157.70651250 -.00000232  00000+0  00000+0 0  9993
2 49336  35.1748  96.2981 0755968 271.1525 277.2040  1.00261002  5923
GSAT0223 (GALILEO 27)   
1 49809U 21116A   23156.22373447 -.00000070  00000+0  00000+0 0  9996
2 49809  57.2630  11.5535 0001682 114.3766  64.0708  1.70475449  9296
GSAT0224 (GALILEO 28)   
1 49810U 21116B   23157.21785559 -.00000073  00000+0  00000+0 0  9992
2 49810  57.2641  11.5246 0001882  97.8470  83.1924  1.70475417  9330
COSMOS 2557             
1 52984U 22075A   23157.12217905 -.00000045  00000+0  00000+0 0  9997
2 52984  64.7809 353.2171 0010508 286.0012  73.9177  2.13101949  7123
COSMOS 2559             
1 54031U 22130A   23157.53309114 -.00000046  00000+0  00000+0 0  9994
2 54031  64.7518 353.3335 0004822 212.9009 147.1027  2.13101153  5105
COSMOS 2564             
1 54377U 22161A   23158.19625345  .00000041  00000+0  00000+0 0  9995
2 54377  64.7589 229.5417 0010287 222.4036 137.5974  2.13102079  4065
NAVSTAR 82 (USA 343)    
1 55268U 23009A   23157.60535602  .00000073  00000+0  00000+0 0  9993
2 55268  55.0924 191.9327 0004521 101.5731 257.9726  2.00561350  3042
BEIDOU-3 G4             
1 56564U 23066A   23158.28655764 -.00000106  00000+0  00000+0 0  9991
2 56564   3.0629 289.3384 0007008 184.9884  44.2743  1.00271659   311
IRNSS-1J (NVS-01)       
1 56759U 23076A   23158.28071759 -.00000339  00000+0  00000+0 0  9992
2 56759   4.9643 273.7782 0009894 183.8233  29.4114  1.00063686   117
